GPS BIIR-2  (PRN 13)    
1 24876U 97035A   25007.69659616  .00000002  00000+0  00000+0 0  9993
2 24876  55.7424 119.1337 0086396  54.7207 306.0738  2.00562156201410
GPS BIIR-4  (PRN 20)    
1 26360U 00025A   25008.08158267 -.00000064  00000+0  00000+0 0  9995
2 26360  54.8236  40.5467 0039773 226.8263 141.9099  2.00563490180743
GPS BIIR-8  (PRN 16)    
1 27663U 03005A   25008.61283551  .00000076  00000+0  00000+0 0  9999
2 27663  55.0254 235.8218 0142797  49.0862 321.4191  2.00563121160788
GPS BIIR-9  (PRN 21)    
1 27704U 03010A   25008.38087146 -.00000083  00000+0  00000+0 0  9996
2 27704  55.0489 345.5021 0259837 333.0968  85.9616  2.00569920159585
GPS BIIR-11 (PRN 19)    
1 28190U 04009A   25006.63563097 -.00000055  00000+0  00000+0 0  9994
2 28190  55.2789 296.8984 0099211 155.9439  19.8438  2.00571860152383
GPS BIIR-13 (PRN 02)    
1 28474U 04045A   25008.54684600 -.00000083  00000+0  00000+0 0  9996
2 28474  55.3791 345.9844 0167210 299.0016 222.6752  2.00563202147905
GPS BIIRM-1 (PRN 17)    
1 28874U 05038A   25008.58830552 -.00000058  00000+0  00000+0 0  9998
2 28874  55.3210 294.2878 0135821 288.2890 244.1920  2.00571401141305
GPS BIIRM-2 (PRN 31)    
1 29486U 06042A   25008.50449635  .00000096  00000+0  00000+0 0  9995
2 29486  54.6810 172.1512 0105449  44.5778 327.3276  2.00570567133876
GPS BIIRM-3 (PRN 12)    
1 29601U 06052A   25007.91271988  .00000073  00000+0  00000+0 0  9998
2 29601  55.0629 234.8426 0087668  83.9116 277.1593  2.00552611132876
GPS BIIRM-4 (PRN 15)    
1 32260U 07047A   25008.22143997 -.00000034  00000+0  00000+0 0  9999
2 32260  53.7247 101.7569 0159087  79.4123 282.3840  2.00554705126282
GPS BIIRM-5 (PRN 29)    
1 32384U 07062A   25008.28366469 -.00000059  00000+0  00000+0 0  9997
2 32384  55.4652 295.1941 0027935 155.2929  17.7900  2.00558030124980
GPS BIIRM-6 (PRN 07)    
1 32711U 08012A   25008.13238047  .00000098  00000+0  00000+0 0  9993
2 32711  54.4571 170.8794 0191433 240.8700 117.1908  2.00553062123220
GPS BIIRM-8 (PRN 05)    
1 35752U 09043A   25008.85105226 -.00000061  00000+0  00000+0 0  9998
2 35752  55.8408  48.1222 0053562  75.4437  94.8359  2.00557252112824
GPS BIIF-1  (PRN 25)    
1 36585U 10022A   25008.22036388  .00000085  00000+0  00000+0 0  9990
2 36585  54.3804 229.7240 0121032  63.0464 129.5798  2.00561803107061
GPS BIIF-3  (PRN 24)    
1 38833U 12053A   25007.81864686  .00000090  00000+0  00000+0 0  9994
2 38833  53.5278 165.1052 0162515  59.4064 302.1686  2.00561042 88906
GPS BIIF-4  (PRN 27)    
1 39166U 13023A   25008.67802973 -.00000052  00000+0  00000+0 0  9997
2 39166  54.9347 290.2837 0130080  45.6455 315.4420  2.00562043 85353
GPS BIIF-5  (PRN 30)    
1 39533U 14008A   25008.17735136  .00000096  00000+0  00000+0 0  9997
2 39533  53.6074 170.7192 0074128 220.8898 138.5413  2.00553747 79156
GPS BIIF-6  (PRN 06)    
1 39741U 14026A   25008.46055023 -.00000077  00000+0  00000+0 0  9990
2 39741  56.6856 351.9103 0036065 315.7322  43.9854  2.00553622 78011
GPS BIIF-7  (PRN 09)    
1 40105U 14045A   25008.04293487 -.00000020  00000+0  00000+0 0  9997
2 40105  55.0298 109.4218 0029735 118.3092 241.9921  2.00550250 75544
GPS BIIF-8  (PRN 03)    
1 40294U 14068A   25008.42042498 -.00000059  00000+0  00000+0 0  9999
2 40294  56.5932  51.2490 0054521  64.3968 296.2244  2.00572793 74684
GPS BIIF-9  (PRN 26)    
1 40534U 15013A   25008.55571950  .00000091  00000+0  00000+0 0  9996
2 40534  53.2785 225.8886 0096705  33.5590 327.1187  2.00553102 71307
GPS BIIF-10 (PRN 08)    
1 40730U 15033A   25008.21800690 -.00000049  00000+0  00000+0 0  9999
2 40730  54.4160 288.6744 0102126  21.8821 338.5833  2.00556317 69466
GPS BIIF-11 (PRN 10)    
1 41019U 15062A   25008.27737416 -.00000059  00000+0  00000+0 0  9994
2 41019  56.5715  51.1100 0102732 227.2951 131.8915  2.00562801 67305
GPS BIIF-12 (PRN 32)    
1 41328U 16007A   25008.36223840 -.00000023  00000+0  00000+0 0  9999
2 41328  55.2184 110.2976 0084835 240.0078 119.1478  2.00551692 65316
GPS BIII-1  (PRN 04)    
1 43873U 18109A   25008.52701618 -.00000021  00000+0  00000+0 0  9991
2 43873  55.3857 112.9114 0032770 194.4191 178.2534  2.00563147 44553
GPS BIII-2  (PRN 18)    
1 44506U 19056A   25008.38158236 -.00000079  00000+0  00000+0 0  9996
2 44506  55.8200 351.9633 0048672 194.7523 336.5147  2.00558890 39546
GPS BIII-3  (PRN 23)    
1 45854U 20041A   25008.23447368 -.00000059  00000+0  00000+0 0  9998
2 45854  56.2916  49.3880 0050572 198.4257 166.7877  2.00568788 33512
GPS BIII-4  (PRN 14)    
1 46826U 20078A   25008.00241994  .00000078  00000+0  00000+0 0  9990
2 46826  54.1074 232.0886 0052309 198.1767 332.0672  2.00559480 30971
GPS BIII-5  (PRN 11)    
1 48859U 21054A   25008.01221830 -.00000077  00000+0  00000+0 0  9991
2 48859  55.3494 353.5344 0019347 230.6791 132.9974  2.00572682 26224
GPS BIII-6  (PRN 28)    
1 55268U 23009A   25007.20466243  .00000103  00000+0  00000+0 0  9993
2 55268  55.0889 169.1690 0002041  71.9784 106.6623  2.00549096 14697
GPS BIII-7  (PRN 01)    
1 62339U 24242A   25008.62154874 -.00000080  00000+0  00000+0 0  9996
2 62339  54.9992 355.4160 0004491 281.8262 284.7810  2.00554717   735
